SL-16 R/B               
1 25400U 98043G   26050.83991628  .00000054  00000+0  41472-4 0  9994
2 25400  98.8224   4.0803 0010889  68.2881 291.9457 14.26045270436449
SL-16 R/B               
1 25407U 98045B   26050.84427785  .00000151  00000+0  10055-3 0  9992
2 25407  71.0095 219.1006 0005821  39.1196 321.0347 14.16190680424574
ISS (ZARYA)             
1 25544U 98067A   26050.82880434  .00062824  00000+0  11723-2 0  9997
2 25544  51.6323 160.6397 0008552 112.9938 247.1953 15.48149648553685
CZ-4B R/B               
1 25732U 99025C   26051.09234326  .00000047  00000+0  43294-4 0  9993
2 25732  98.6664  95.7877 0037702  37.0038 350.8363 14.18261655385679
OKEAN-O                 
1 25860U 99039A   26051.14510206  .00000601  00000+0  85688-4 0  9999
2 25860  97.9482 111.2116 0001683  78.7943 281.3458 14.80304976431798
SL-16 R/B               
1 25861U 99039B   26051.14152884  .00000503  00000+0  70686-4 0  9997
2 25861  98.0006 110.2608 0013822 318.2283  41.7874 14.81705045434263
DELTA 2 R/B             
1 25876U 99041E   26051.09737978  .00001456  00000+0  27203-3 0  9997
2 25876  51.7662  11.5362 0502211 296.4806  58.5450 14.11770440360545
HELIOS 1B               
1 25977U 99064A   26051.15880294  .00001661  00000+0  18907-3 0  9990
2 25977  98.1715 312.8856 0002358  99.1345 261.0137 14.87620348682655
TERRA                   
1 25994U 99068A   26051.10805905  .00000377  00000+0  85881-4 0  9993
2 25994  97.9632 105.2111 0001448 202.9466 186.5275 14.60994312392517
SL-16 R/B               
1 26070U 00006B   26051.20829889  .00000012  00000+0  30501-4 0  9996
2 26070  71.0022 134.5957 0017876 214.5018 145.4946 14.15818370346085
TITAN 4B R/B            
1 26474U 00047B   26051.13710510  .00002666  00000+0  17218-3 0  9997
2 26474  67.9877  89.8628 0037493  56.6256 303.8471 15.09395528390269
ENVISAT                 
1 27386U 02009A   26050.87363557  .00000112  00000+0  50258-4 0  9991
2 27386  98.3699   4.8987 0001352  87.4189 292.9048 14.39029788256611
